COSMOS 1933             
1 18958U 88020A   25345.03799948  .00005943  00000+0  29851-3 0  9995
2 18958  82.5139 338.5603 0005606 132.0903 228.0808 15.17085611 36781
SL-3 R/B                
1 19046U 88032B   25345.21436407  .00008080  00000+0  38896-3 0  9999
2 19046  97.5085 323.9453 0026579 178.1918 181.9417 15.18716876 38674
SL-16 R/B               
1 19120U 88039B   25345.19678457 -.00000004  00000+0  20669-4 0  9998
2 19120  71.0152 255.6607 0019737 118.9266 241.3842 14.19596691945825
COSMOS 1953             
1 19210U 88050A   25345.19711553  .00008835  00000+0  33223-3 0  9994
2 19210  82.5090 247.1294 0013811  76.2264 284.0511 15.26909057 24279
SL-8 R/B                
1 19257U 88053B   25345.22796258  .00000419  00000+0  14441-3 0  9998
2 19257  74.0479 275.5056 0019023 120.2259 346.4161 14.38857589963879
COSMOS 1975             
1 19573U 88093A   25345.07650843  .00010213  00000+0  38995-3 0  9998
2 19573  82.5202 206.4940 0012773 117.5863 242.6674 15.26430064  5885
SL-14 R/B               
1 19574U 88093B   25345.17959344  .00000854  00000+0  95771-4 0  9994
2 19574  82.5303 125.1312 0020078 334.8086 198.7613 14.85546391987895
SL-16 R/B               
1 19650U 88102B   25345.18700152 -.00000074  00000+0 -13016-4 0  9990
2 19650  70.9996 337.7103 0013040 154.5853 205.5914 14.16136210914360
INTERCOSMOS 24          
1 20261U 89080A   25344.91697113  .00001463  00000+0  42420-3 0  9999
2 20261  82.6043 162.1380 1188829 138.7473 230.9923 12.59434577655626
SL-14 R/B               
1 20262U 89080C   25345.14421639  .00000588  00000+0  17144-3 0  9996
2 20262  82.5930 230.0449 1230688  27.2335 338.8144 12.50411653649089
DELTA 1 R/B             
1 20323U 89089B   25345.19118034  .00000530  00000+0  13968-3 0  9997
2 20323  97.0753 201.6742 0070226  43.1183 317.5486 14.50570180882904
ARIANE 40 R/B           
1 20443U 90005H   25345.14085142  .00000488  00000+0  16903-3 0  9992
2 20443  98.3244  43.3638 0011202 110.1437 250.0958 14.39796771880060
